CCSDS_OMM_VERS = 2.0
CREATION_DATE  = 
ORIGINATOR     = 

OBJECT_NAME    = STARLINK-37139
OBJECT_ID      = 2026-057Z
CENTER_NAME    = EARTH
REF_FRAME      = TEME
TIME_SYSTEM    = UTC
MEAN_ELEMENT_THEORY = SGP/SGP4

EPOCH          = 2026-04-03T14:00:03.000384
MEAN_MOTION    = 15.87633367
ECCENTRICITY   = .00016608
INCLINATION    = 97.2735
RA_OF_ASC_NODE = 217.1921
ARG_OF_PERICENTER = 69.1060
MEAN_ANOMALY   = 112.3289

EPHEMERIS_TYPE = 0
CLASSIFICATION_TYPE = U
NORAD_CAT_ID   = 68317
ELEMENT_SET_NO = 999
REV_AT_EPOCH   = 301
BSTAR          = -.73403518E-2
MEAN_MOTION_DOT = -.1692567E-1
MEAN_MOTION_DDOT = 0

CCSDS_OMM_VERS = 2.0
CREATION_DATE  = 
ORIGINATOR     = 

OBJECT_NAME    = STARLINK-37113
OBJECT_ID      = 2026-057AA
CENTER_NAME    = EARTH
REF_FRAME      = TEME
TIME_SYSTEM    = UTC
MEAN_ELEMENT_THEORY = SGP/SGP4

EPOCH          = 2026-04-03T14:00:03.000384
MEAN_MOTION    = 15.87565412
ECCENTRICITY   = .00016776
INCLINATION    = 97.2731
RA_OF_ASC_NODE = 217.1962
ARG_OF_PERICENTER = 66.8046
MEAN_ANOMALY   = 124.0042

EPHEMERIS_TYPE = 0
CLASSIFICATION_TYPE = U
NORAD_CAT_ID   = 68318
ELEMENT_SET_NO = 999
REV_AT_EPOCH   = 326
BSTAR          = -.74604517E-2
MEAN_MOTION_DOT = -.1711558E-1
MEAN_MOTION_DDOT = 0

CCSDS_OMM_VERS = 2.0
CREATION_DATE  = 
ORIGINATOR     = 

OBJECT_NAME    = PROGRESS-MS 33
OBJECT_ID      = 2026-058A
CENTER_NAME    = EARTH
REF_FRAME      = TEME
TIME_SYSTEM    = UTC
MEAN_ELEMENT_THEORY = SGP/SGP4

EPOCH          = 2026-04-03T21:00:58.615488
MEAN_MOTION    = 15.48754008
ECCENTRICITY   = .0006253
INCLINATION    = 51.6327
RA_OF_ASC_NODE = 307.8415
ARG_OF_PERICENTER = 268.9169
MEAN_ANOMALY   = 91.1103

EPHEMERIS_TYPE = 0
CLASSIFICATION_TYPE = U
NORAD_CAT_ID   = 68319
ELEMENT_SET_NO = 999
REV_AT_EPOCH   = 171
BSTAR          = .23534E-3
MEAN_MOTION_DOT = .12431E-3
MEAN_MOTION_DDOT = 0

CCSDS_OMM_VERS = 2.0
CREATION_DATE  = 
ORIGINATOR     = 

OBJECT_NAME    = STARLINK-36987
OBJECT_ID      = 2026-059A
CENTER_NAME    = EARTH
REF_FRAME      = TEME
TIME_SYSTEM    = UTC
MEAN_ELEMENT_THEORY = SGP/SGP4

EPOCH          = 2026-04-03T18:59:07.494144
MEAN_MOTION    = 15.81002444
ECCENTRICITY   = .0001071
INCLINATION    = 53.1593
RA_OF_ASC_NODE = 237.0928
ARG_OF_PERICENTER = 64.1086
MEAN_ANOMALY   = 296.0047

EPHEMERIS_TYPE = 0
CLASSIFICATION_TYPE = U
NORAD_CAT_ID   = 68321
ELEMENT_SET_NO = 999
REV_AT_EPOCH   = 194
BSTAR          = .24871E-2
MEAN_MOTION_DOT = .524315E-2
MEAN_MOTION_DDOT = 0

CCSDS_OMM_VERS = 2.0
CREATION_DATE  = 
ORIGINATOR     = 

OBJECT_NAME    = STARLINK-37088
OBJECT_ID      = 2026-059B
CENTER_NAME    = EARTH
REF_FRAME      = TEME
TIME_SYSTEM    = UTC
MEAN_ELEMENT_THEORY = SGP/SGP4

EPOCH          = 2026-04-03T20:28:00.380352
MEAN_MOTION    = 15.81041274
ECCENTRICITY   = .000163
INCLINATION    = 53.1589
RA_OF_ASC_NODE = 236.7654
ARG_OF_PERICENTER = 36.6236
MEAN_ANOMALY   = 323.4898

EPHEMERIS_TYPE = 0
CLASSIFICATION_TYPE = U
NORAD_CAT_ID   = 68322
ELEMENT_SET_NO = 999
REV_AT_EPOCH   = 195
BSTAR          = .31722E-2
MEAN_MOTION_DOT = .682732E-2
MEAN_MOTION_DDOT = 0

CCSDS_OMM_VERS = 2.0
CREATION_DATE  = 
ORIGINATOR     = 

OBJECT_NAME    = STARLINK-36983
OBJECT_ID      = 2026-059C
CENTER_NAME    = EARTH
REF_FRAME      = TEME
TIME_SYSTEM    = UTC
MEAN_ELEMENT_THEORY = SGP/SGP4

EPOCH          = 2026-04-03T18:58:02.887680
MEAN_MOTION    = 15.80989623
ECCENTRICITY   = .0001107
INCLINATION    = 53.1587
RA_OF_ASC_NODE = 237.0876
ARG_OF_PERICENTER = 81.1300
MEAN_ANOMALY   = 278.9848

EPHEMERIS_TYPE = 0
CLASSIFICATION_TYPE = U
NORAD_CAT_ID   = 68323
ELEMENT_SET_NO = 999
REV_AT_EPOCH   = 194
BSTAR          = .26004E-2
MEAN_MOTION_DOT = .549536E-2
MEAN_MOTION_DDOT = 0

CCSDS_OMM_VERS = 2.0
CREATION_DATE  = 
ORIGINATOR     = 

OBJECT_NAME    = STARLINK-37164
OBJECT_ID      = 2026-059D
CENTER_NAME    = EARTH
REF_FRAME      = TEME
TIME_SYSTEM    = UTC
MEAN_ELEMENT_THEORY = SGP/SGP4

EPOCH          = 2026-04-03T20:26:55.429152
MEAN_MOTION    = 15.81060191
ECCENTRICITY   = .0001279
INCLINATION    = 53.1586
RA_OF_ASC_NODE = 236.7602
ARG_OF_PERICENTER = 82.1189
MEAN_ANOMALY   = 277.9979

EPHEMERIS_TYPE = 0
CLASSIFICATION_TYPE = U
NORAD_CAT_ID   = 68324
ELEMENT_SET_NO = 999
REV_AT_EPOCH   = 308
BSTAR          = .31667E-2
MEAN_MOTION_DOT = .682125E-2
MEAN_MOTION_DDOT = 0

CCSDS_OMM_VERS = 2.0
CREATION_DATE  = 
ORIGINATOR     = 

OBJECT_NAME    = STARLINK-36309
OBJECT_ID      = 2026-059E
CENTER_NAME    = EARTH
REF_FRAME      = TEME
TIME_SYSTEM    = UTC
MEAN_ELEMENT_THEORY = SGP/SGP4

EPOCH          = 2026-04-03T18:54:48.067776
MEAN_MOTION    = 15.80899895
ECCENTRICITY   = .0002576
INCLINATION    = 53.1600
RA_OF_ASC_NODE = 237.0729
ARG_OF_PERICENTER = 163.2763
MEAN_ANOMALY   = 196.8345

EPHEMERIS_TYPE = 0
CLASSIFICATION_TYPE = U
NORAD_CAT_ID   = 68325
ELEMENT_SET_NO = 999
REV_AT_EPOCH   = 194
BSTAR          = .12823E-2
MEAN_MOTION_DOT = .2605E-2
MEAN_MOTION_DDOT = 0

CCSDS_OMM_VERS = 2.0
CREATION_DATE  = 
ORIGINATOR     = 

OBJECT_NAME    = STARLINK-37206
OBJECT_ID      = 2026-059F
CENTER_NAME    = EARTH
REF_FRAME      = TEME
TIME_SYSTEM    = UTC
MEAN_ELEMENT_THEORY = SGP/SGP4

EPOCH          = 2026-04-03T20:24:45.765216
MEAN_MOTION    = 15.80951445
ECCENTRICITY   = .0001602
INCLINATION    = 53.1594
RA_OF_ASC_NODE = 236.7499
ARG_OF_PERICENTER = 148.2423
MEAN_ANOMALY   = 211.8696

EPHEMERIS_TYPE = 0
CLASSIFICATION_TYPE = U
NORAD_CAT_ID   = 68326
ELEMENT_SET_NO = 999
REV_AT_EPOCH   = 195
BSTAR          = .18272E-2
MEAN_MOTION_DOT = .377504E-2
MEAN_MOTION_DDOT = 0

CCSDS_OMM_VERS = 2.0
CREATION_DATE  = 
ORIGINATOR     = 

OBJECT_NAME    = STARLINK-37199
OBJECT_ID      = 2026-059G
CENTER_NAME    = EARTH
REF_FRAME      = TEME
TIME_SYSTEM    = UTC
MEAN_ELEMENT_THEORY = SGP/SGP4

EPOCH          = 2026-04-03T20:23:39.718464
MEAN_MOTION    = 15.80983910
ECCENTRICITY   = .00032
INCLINATION    = 53.1590
RA_OF_ASC_NODE = 236.7452
ARG_OF_PERICENTER = 70.6200
MEAN_ANOMALY   = 289.5169

EPHEMERIS_TYPE = 0
CLASSIFICATION_TYPE = U
NORAD_CAT_ID   = 68327
ELEMENT_SET_NO = 999
REV_AT_EPOCH   = 195
BSTAR          = .18099E-2
MEAN_MOTION_DOT = .374369E-2
MEAN_MOTION_DDOT = 0

CCSDS_OMM_VERS = 2.0
CREATION_DATE  = 
ORIGINATOR     = 

OBJECT_NAME    = STARLINK-36245
OBJECT_ID      = 2026-059H
CENTER_NAME    = EARTH
REF_FRAME      = TEME
TIME_SYSTEM    = UTC
MEAN_ELEMENT_THEORY = SGP/SGP4

EPOCH          = 2026-04-03T18:50:29.344704
MEAN_MOTION    = 15.80926286
ECCENTRICITY   = .000091
INCLINATION    = 53.1600
RA_OF_ASC_NODE = 237.0521
ARG_OF_PERICENTER = 93.6630
MEAN_ANOMALY   = 266.4497

EPHEMERIS_TYPE = 0
CLASSIFICATION_TYPE = U
NORAD_CAT_ID   = 68328
ELEMENT_SET_NO = 999
REV_AT_EPOCH   = 194
BSTAR          = .17063E-2
MEAN_MOTION_DOT = .350986E-2
MEAN_MOTION_DDOT = 0

CCSDS_OMM_VERS = 2.0
CREATION_DATE  = 
ORIGINATOR     = 

OBJECT_NAME    = STARLINK-37204
OBJECT_ID      = 2026-059J
CENTER_NAME    = EARTH
REF_FRAME      = TEME
TIME_SYSTEM    = UTC
MEAN_ELEMENT_THEORY = SGP/SGP4

EPOCH          = 2026-04-03T18:51:34.125696
MEAN_MOTION    = 15.80936615
ECCENTRICITY   = .0000671
INCLINATION    = 53.1601
RA_OF_ASC_NODE = 237.0578
ARG_OF_PERICENTER = 84.7573
MEAN_ANOMALY   = 275.3526

EPHEMERIS_TYPE = 0
CLASSIFICATION_TYPE = U
NORAD_CAT_ID   = 68329
ELEMENT_SET_NO = 999
REV_AT_EPOCH   = 194
BSTAR          = .18556E-2
MEAN_MOTION_DOT = .383411E-2
MEAN_MOTION_DDOT = 0

